NORAD_CAT_ID,OBJECT_NAME,OBJECT_TYPE,EPOCH,MEAN_MOTION,ECCENTRICITY,INCLINATION,RA_OF_ASC_NODE,ARG_OF_PERICENTER,MEAN_ANOMALY,BSTAR,MEAN_MOTION_DOT,MEAN_MOTION_DDOT,TLE_LINE0,TLE_LINE1,TLE_LINE2,SEMIMAJOR_AXIS,PERIOD,APOGEE,PERIGEE,DECAYED
53272.0,STARLINK-4122,PAYLOAD,2023-04-10 21:34:05,15.08857887,0.0001157,53.2154,279.6622,83.0919,277.0205,0.00048601,7.459e-05,0.0,0 STARLINK-4122,1 53272U 22086AG  23100.89867315  .00007459  00000-0  48601-3 0  9997,2 53272  53.2154 279.6622 0001157  83.0919 277.0205 15.08857887 40609,6917.826,95.436,540.491,538.89,0.0
53272.0,STARLINK-4122,PAYLOAD,2023-04-11 05:31:01,15.08845043,0.0001653,53.216,278.1767,71.4163,288.7009,0.00010117,1.323e-05,0.0,0 STARLINK-4122,1 53272U 22086AG  23101.22987474  .00001323  00000-0  10117-3 0  9999,2 53272  53.2160 278.1767 0001653  71.4163 288.7009 15.08845043 40650,6917.865,95.437,540.873,538.586,0.0
53272.0,STARLINK-4122,PAYLOAD,2023-04-11 18:14:06,15.08840775,0.0001474,53.216,275.7974,84.8442,275.2718,9.8927e-05,1.287e-05,0.0,0 STARLINK-4122,1 53272U 22086AG  23101.75979752  .00001287  00000-0  98927-4 0  9992,2 53272  53.2160 275.7974 0001474  84.8442 275.2718 15.08840775 40556,6917.878,95.438,540.763,538.723,0.0
53272.0,STARLINK-4122,PAYLOAD,2023-04-12 10:07:57,15.08843372,0.0001454,53.2158,272.8243,83.4056,276.7102,0.00012722,1.738e-05,0.0,0 STARLINK-4122,1 53272U 22086AG  23102.42219707  .00001738  00000-0  12722-3 0  9993,2 53272  53.2158 272.8243 0001454  83.4056 276.7102 15.08843372 40834,6917.87,95.437,540.741,538.729,0.0
53272.0,STARLINK-4122,PAYLOAD,2023-04-13 09:58:44,15.08840646,0.0001335,53.2162,268.3636,85.05,275.0644,0.000114,1.527e-05,0.0,0 STARLINK-4122,1 53272U 22086AG  23103.41579841  .00001527  00000-0  11400-3 0  9999,2 53272  53.2162 268.3636 0001335  85.0500 275.0644 15.08840646 40985,6917.878,95.438,540.667,538.82,0.0
53272.0,STARLINK-4122,PAYLOAD,2023-04-14 11:24:55,15.08837603,9.81e-05,53.2214,263.6071,100.3523,259.758,0.00011996,1.622e-05,0.0,0 STARLINK-4122,1 53272U 22086AG  23104.47563953  .00001622  00000-0  11996-3 0  9999,2 53272  53.2214 263.6071 0000981 100.3523 259.7580 15.08837603 41142,6917.888,95.438,540.431,539.074,0.0
53272.0,STARLINK-4122,PAYLOAD,2023-04-15 11:15:42,15.08833549,0.0001212,53.2185,259.1453,96.6538,263.4592,-7.3738e-06,-4.05e-06,0.0,0 STARLINK-4122,1 53272U 22086AG  23105.46924409 -.00000405  00000-0 -73738-5 0  9990,2 53272  53.2185 259.1453 0001212  96.6538 263.4592 15.08833549 41111,6917.9,95.438,540.604,538.927,0.0
53272.0,STARLINK-4122,PAYLOAD,2023-04-15 19:12:37,15.08843935,0.000105,53.2157,257.6564,81.8036,278.3076,0.0001494,2.091e-05,0.0,0 STARLINK-4122,1 53272U 22086AG  23105.80043909  .00002091  00000-0  14940-3 0  9994,2 53272  53.2157 257.6564 0001050  81.8036 278.3076 15.08843935 41162,6917.868,95.437,540.46,539.007,0.0
53272.0,STARLINK-4122,PAYLOAD,2023-04-16 03:09:33,15.08840775,9.85e-05,53.2152,256.1718,89.3304,270.7801,0.00011277,1.507e-05,0.0,0 STARLINK-4122,1 53272U 22086AG  23106.13164081  .00001507  00000-0  11277-3 0  9997,2 53272  53.2152 256.1718 0000985  89.3304 270.7801 15.08840775 41395,6917.878,95.438,540.424,539.062,0.0
53272.0,STARLINK-4122,PAYLOAD,2023-04-16 19:03:24,15.08855639,0.000105,53.2155,253.1981,90.3906,269.7207,0.00043451,6.637e-05,0.0,0 STARLINK-4122,1 53272U 22086AG  23106.79403613  .00006637  00000-0  43451-3 0  9994,2 53272  53.2155 253.1981 0001050  90.3906 269.7207 15.08855639 41495,6917.833,95.437,540.424,538.971,0.0
53272.0,STARLINK-4122,PAYLOAD,2023-04-17 03:00:20,15.08845498,0.0001013,53.2164,251.7092,82.9666,277.1441,0.00013819,1.913e-05,0.0,0 STARLINK-4122,1 53272U 22086AG  23107.12523816  .00001913  00000-0  13819-3 0  9997,2 53272  53.2164 251.7092 0001013  82.9666 277.1441 15.08845498 41362,6917.864,95.437,540.429,539.028,0.0
53272.0,STARLINK-4122,PAYLOAD,2023-04-17 09:21:53,15.08838877,0.0001228,53.215,250.5206,87.5789,272.5344,0.00013478,1.858e-05,0.0,0 STARLINK-4122,1 53272U 22086AG  23107.39020272  .00001858  00000-0  13478-3 0  9993,2 53272  53.2150 250.5206 0001228  87.5789 272.5344 15.08838877 41405,6917.884,95.438,540.598,538.899,0.0
53272.0,STARLINK-4122,PAYLOAD,2023-04-17 14:08:03,15.08840404,0.000144,53.2162,249.6288,86.0527,274.0629,0.00017056,2.428e-05,0.0,0 STARLINK-4122,1 53272U 22086AG  23107.58892391  .00002428  00000-0  17056-3 0  9993,2 53272  53.2162 249.6288 0001440  86.0527 274.0629 15.08840404 41612,6917.879,95.438,540.74,538.748,0.0
53272.0,STARLINK-4122,PAYLOAD,2023-04-17 15:43:26,15.08843367,0.0001417,53.216,249.3302,89.0176,271.0979,0.00011111,1.481e-05,0.0,0 STARLINK-4122,1 53272U 22086AG  23107.65516216  .00001481  00000-0  11111-3 0  9994,2 53272  53.2160 249.3302 0001417  89.0176 271.0979 15.08843367 41628,6917.87,95.437,540.715,538.755,0.0
53272.0,STARLINK-4122,PAYLOAD,2023-04-18 02:51:07,15.0884565,0.0001383,53.2154,247.2503,82.4197,277.6953,8.7823e-05,1.11e-05,0.0,0 STARLINK-4122,1 53272U 22086AG  23108.11884091  .00001110  00000-0  87823-4 0  9998,2 53272  53.2154 247.2503 0001383  82.4197 277.6953 15.08845650 41691,6917.863,95.437,540.685,538.771,0.0
53272.0,STARLINK-4122,PAYLOAD,2023-04-18 13:58:50,15.08839658,0.0001709,53.2171,245.17,80.0907,280.0278,5.6357e-05,6.09e-06,0.0,0 STARLINK-4122,1 53272U 22086AG  23108.58252603  .00000609  00000-0  56357-4 0  9997,2 53272  53.2171 245.1700 0001709  80.0907 280.0278 15.08839658 41588,6917.881,95.438,540.929,538.564,0.0
53272.0,STARLINK-4122,PAYLOAD,2023-04-18 17:09:35,15.08846223,0.0001392,53.2161,244.5714,103.3076,256.8071,2.4411e-05,1.01e-06,0.0,0 STARLINK-4122,1 53272U 22086AG  23108.71499993  .00000101  00000-0  24411-4 0  9990,2 53272  53.2161 244.5714 0001392 103.3076 256.8071 15.08846223 41789,6917.861,95.437,540.689,538.763,0.0
53272.0,STARLINK-4122,PAYLOAD,2023-04-19 09:03:27,15.08836255,0.0001244,53.2165,241.5967,113.6487,246.4635,0.00017526,2.502e-05,0.0,0 STARLINK-4122,1 53272U 22086AG  23109.37740538  .00002502  00000-0  17526-3 0  9992,2 53272  53.2165 241.5967 0001244 113.6487 246.4635 15.08836255 41882,6917.892,95.438,540.617,538.896,0.0
53272.0,STARLINK-4122,PAYLOAD,2023-04-19 15:25:00,15.08845479,0.000145,53.2159,240.4095,94.5634,265.5523,0.00018021,2.582e-05,0.0,0 STARLINK-4122,1 53272U 22086AG  23109.64236259  .00002582  00000-0  18021-3 0  9991,2 53272  53.2159 240.4095 0001450  94.5634 265.5523 15.08845479 41926,6917.864,95.437,540.732,538.726,0.0
53272.0,STARLINK-4122,PAYLOAD,2023-04-20 08:54:14,15.08837818,0.0001484,53.217,237.1407,96.2299,263.8862,0.00011501,1.543e-05,0.0,0 STARLINK-4122,1 53272U 22086AG  23110.37100649  .00001543  00000-0  11501-3 0  9998,2 53272  53.2170 237.1407 0001484  96.2299 263.8862 15.08837818 42030,6917.887,95.438,540.779,538.725,0.0
53272.0,STARLINK-4122,PAYLOAD,2023-04-20 15:15:47,15.08838761,0.0001479,53.2169,235.9523,90.0603,270.0558,0.00010674,1.411e-05,0.0,0 STARLINK-4122,1 53272U 22086AG  23110.63596640  .00001411  00000-0  10674-3 0  9991,2 53272  53.2169 235.9523 0001479  90.0603 270.0558 15.08838761 41891,6917.884,95.438,540.772,538.726,0.0
53272.0,STARLINK-4122,PAYLOAD,2023-04-21 11:55:48,15.08836403,0.0001092,53.2173,232.0868,87.6398,272.4719,5.3458e-05,5.63e-06,0.0,0 STARLINK-4122,1 53272U 22086AG  23111.49709155  .00000563  00000-0  53458-4 0  9998,2 53272  53.2173 232.0868 0001092  87.6398 272.4719 15.08836403 42202,6917.891,95.438,540.512,539.001,0.0
53272.0,STARLINK-4122,PAYLOAD,2023-04-21 13:31:11,15.08838312,0.0001097,53.2177,231.7894,93.8403,266.2715,6.7336e-05,7.84e-06,0.0,0 STARLINK-4122,1 53272U 22086AG  23111.56332995  .00000784  00000-0  67336-4 0  9995,2 53272  53.2177 231.7894 0001097  93.8403 266.2715 15.08838312 42211,6917.886,95.438,540.509,538.992,0.0
53272.0,STARLINK-4122,PAYLOAD,2023-04-22 00:38:53,15.08844435,0.000111,53.2174,229.7074,97.8909,262.2209,4.6299e-05,4.49e-06,0.0,0 STARLINK-4122,1 53272U 22086AG  23112.02700561  .00000449  00000-0  46299-4 0  9998,2 53272  53.2174 229.7074 0001110  97.8909 262.2209 15.08844435 42101,6917.867,95.437,540.5,538.964,0.0
53272.0,STARLINK-4122,PAYLOAD,2023-04-22 16:32:44,15.08848206,9.59e-05,53.2175,226.7335,97.1895,262.9207,0.00014771,2.064e-05,0.0,0 STARLINK-4122,1 53272U 22086AG  23112.68940159  .00002064  00000-0  14771-3 0  9993,2 53272  53.2175 226.7335 0000959  97.1895 262.9207 15.08848206 42381,6917.855,95.437,540.384,539.057,0.0
53272.0,STARLINK-4122,PAYLOAD,2023-04-23 00:29:40,15.08836773,4.97e-05,53.2174,225.2472,246.7901,113.3039,8.4562e-05,1.058e-05,0.0,0 STARLINK-4122,1 53272U 22086AG  23113.02060588  .00001058  00000-0  84562-4 0  9999,2 53272  53.2174 225.2472 0000497 246.7901 113.3039 15.08836773 42257,6917.89,95.438,540.099,539.411,0.0
53272.0,STARLINK-4122,PAYLOAD,2023-04-23 16:23:32,15.08833983,0.0001172,53.2166,222.2713,84.4674,275.6452,1.7786e-05,-5e-08,0.0,0 STARLINK-4122,1 53272U 22086AG  23113.68301817 -.00000005  00000-0  17786-4 0  9990,2 53272  53.2166 222.2713 0001172  84.4674 275.6452 15.08833983 42350,6917.899,95.438,540.575,538.953,0.0
53272.0,STARLINK-4122,PAYLOAD,2023-04-24 00:20:27,15.08845276,8.68e-05,53.2164,220.7846,94.4375,265.6717,0.00010158,1.33e-05,0.0,0 STARLINK-4122,1 53272U 22086AG  23114.01420788  .00001330  00000-0  10158-3 0  9993,2 53272  53.2164 220.7846 0000868  94.4375 265.6717 15.08845276 42405,6917.864,95.437,540.33,539.129,0.0
53272.0,STARLINK-4122,PAYLOAD,2023-04-24 14:38:52,15.0888257,0.00012,53.2172,218.1069,90.5576,269.5554,0.00026955,4.01e-05,0.0,0 STARLINK-4122,1 53272U 22086AG  23114.61033439  .00004010  00000-0  26955-3 0  9992,2 53272  53.2172 218.1069 0001200  90.5576 269.5554 15.08882570 42492,6917.75,95.435,540.445,538.785,0.0
53272.0,STARLINK-4122,PAYLOAD,2023-04-25 00:11:12,15.08857613,0.000115,53.2158,216.3242,91.7258,268.3866,6.456e-05,7.4e-06,0.0,0 STARLINK-4122,1 53272U 22086AG  23115.00778875  .00000740  00000-0  64560-4 0  9997,2 53272  53.2158 216.3242 0001150  91.7258 268.3866 15.08857613 42553,6917.827,95.436,540.487,538.896,0.0
